[{"OBJECT_NAME":"STARLINK-30108","OBJECT_ID":"2023-056P","EPOCH":"2026-03-09T13:07:34.368384","MEAN_MOTION":15.11980738,"ECCENTRICITY":0.00017014,"INCLINATION":43.0001,"RA_OF_ASC_NODE":197.0429,"ARG_OF_PERICENTER":278.3718,"MEAN_ANOMALY":81.6935,"EPHEMERIS_TYPE":0,"CLASSIFICATION_TYPE":"U","NORAD_CAT_ID":56299,"ELEMENT_SET_NO":999,"REV_AT_EPOCH":16022,"BSTAR":-0.00011039932,"MEAN_MOTION_DOT":-2.151e-5,"MEAN_MOTION_DDOT":0},{"OBJECT_NAME":"CZ-4 DEB","OBJECT_ID":"1990-081BD","EPOCH":"2026-03-09T22:42:42.703776","MEAN_MOTION":15.11873294,"ECCENTRICITY":0.00034139,"INCLINATION":98.0936,"RA_OF_ASC_NODE":110.4779,"ARG_OF_PERICENTER":147.9161,"MEAN_ANOMALY":298.2423,"EPHEMERIS_TYPE":0,"CLASSIFICATION_TYPE":"U","NORAD_CAT_ID":20893,"ELEMENT_SET_NO":999,"REV_AT_EPOCH":85212,"BSTAR":0.0037838154,"MEAN_MOTION_DOT":0.00065217,"MEAN_MOTION_DDOT":0}]
